OBJECT_NAME,OBJECT_ID,EPOCH,MEAN_MOTION,ECCENTRICITY,INCLINATION,RA_OF_ASC_NODE,ARG_OF_PERICENTER,MEAN_ANOMALY,EPHEMERIS_TYPE,CLASSIFICATION_TYPE,NORAD_CAT_ID,ELEMENT_SET_NO,REV_AT_EPOCH,BSTAR,MEAN_MOTION_DOT,MEAN_MOTION_DDOT
POLYITAN-1,2014-033AJ,2026-07-16T14:32:41.120736,15.34251009,.0007762,98.0930,226.6719,60.1864,300.0148,0,U,40042,999,65810,.32851E-3,.10814E-3,0
TIGRISAT,2014-033AK,2026-07-16T10:08:20.504256,14.85251528,.0048535,97.7866,346.7713,340.2740,19.6596,0,U,40043,999,64996,.85612E-4,.694E-5,0
AEROCUBE 6A,2014-033AM,2026-07-16T09:49:54.959232,14.98350636,.0036245,97.7251,4.0545,276.8041,82.9058,0,U,40045,999,65099,.26003E-3,.3078E-4,0
AEROCUBE 6B,2014-033AN,2026-07-16T10:48:24.221376,14.99804588,.0038099,97.7203,3.9444,265.6557,94.0312,0,U,40046,999,65114,.20521E-3,.2514E-4,0
CANX-4,2014-034C,2026-07-16T14:28:55.356672,14.81312483,.0011386,98.3081,73.9913,277.7492,82.2427,0,U,40055,999,64888,.56366E-4,.383E-5,0
CANX-5,2014-034D,2026-07-16T14:26:10.292928,14.81329842,.0011389,98.3083,74.0347,278.0090,81.9829,0,U,40056,999,63969,.56538E-4,.384E-5,0
UKUBE-1,2014-037F,2026-07-16T13:59:50.587296,15.13961725,.0003243,98.4243,203.9543,85.4998,274.6601,0,U,40074,999,65300,.23819E-3,.4241E-4,0
BRITE-PL2 (HEWELIUSZ),2014-049B,2026-07-16T18:18:25.710912,14.94689118,.001418,97.9121,309.9960,17.0924,343.0771,0,U,40119,999,64586,.49566E-4,.479E-5,0
AEROCUBE 5C,2015-058B,2026-07-16T08:06:09.180000,14.91580191,.0132402,64.7647,171.8939,52.0242,309.2743,0,U,40965,999,37000,.15824E-3,.1701E-4,0
AEROCUBE 7,2015-058C,2026-07-16T14:01:28.536384,14.95921688,.0122135,64.7615,152.7227,50.2313,310.9482,0,U,40966,999,37035,.22231E-3,.2715E-4,0
FOX-1A (AO-85),2015-058D,2026-07-16T07:51:44.997696,14.91092003,.0132456,64.7725,188.4142,45.3781,315.8042,0,U,40967,999,11791,.15016E-3,.1582E-4,0
SINOD-D 1,2015-058E,2026-07-16T21:26:00.040128,14.96097928,.0121181,64.7738,165.8705,41.5238,319.5003,0,U,40968,999,12110,.22756E-3,.2792E-4,0
SNAP-3 ALICE,2015-058G,2026-07-16T15:41:06.750240,15.67518998,.0024966,64.7497,1.4930,347.2471,12.8044,0,U,40970,999,12149,.92029E-3,.103321E-2,0
LMRST-SAT,2015-058H,2026-07-16T08:34:46.717824,14.90707153,.0134,64.7732,184.7151,47.3672,313.8644,0,U,40971,999,11790,.14712E-3,.1536E-4,0
SNAP-3 EDDIE,2015-058J,2026-07-16T14:52:32.772864,15.68916105,.0026109,64.7407,352.1091,350.0067,10.0560,0,U,40972,999,12363,.90403E-3,.107734E-2,0
PROPCUBE 3,2015-058K,2026-07-16T20:33:15.655680,14.94424231,.0125901,64.7675,159.8251,48.3690,312.8125,0,U,40973,999,11923,.19914E-3,.2334E-4,0
BISONSAT,2015-058L,2026-07-16T15:23:08.357280,15.16956157,.0082257,64.7581,78.3568,35.2538,325.3988,0,U,40974,999,12008,.3773E-3,.7955E-4,0
SNAP-3 JIMI,2015-058M,2026-07-16T19:25:17.529024,15.02623175,.0107963,64.7650,126.0265,43.7159,317.2444,0,U,40975,999,11867,.28098E-3,.4072E-4,0
PROPCUBE 1 (FLORA),2015-058N,2026-07-16T09:45:10.861344,14.89331448,.0132569,64.7718,204.6689,49.6229,311.6365,0,U,40976,999,12061,.12914E-3,.1269E-4,0
SINOD-D 3,2015-058P,2026-07-16T08:34:41.111328,14.94178870,.0121164,64.7705,184.7165,46.6877,314.4261,0,U,40977,999,11911,.18637E-3,.2131E-4,0
RAVAN,2016-067B,2026-07-16T16:29:31.011072,15.57575989,.0002422,97.9839,90.7306,209.8992,150.2123,0,U,41849,999,53228,.50618E-3,.37324E-3,0
CELTEE 1,2016-067C,2026-07-16T13:42:20.614752,15.19948645,.000236,98.0630,66.1419,108.5425,251.6065,0,U,41850,999,53034,.13128E-3,.2745E-4,0
OPTICUBE 04,2016-067D,2026-07-16T20:07:06.750048,15.09775775,.0016057,98.0673,51.6669,22.5432,337.6498,0,U,41851,999,52964,.59841E-4,.897E-5,0
AEROCUBE 8D,2016-067E,2026-07-16T14:59:18.158208,15.24781916,.0004509,98.0637,70.0375,52.8321,307.3326,0,U,41852,999,53055,.16307E-3,.396E-4,0
AEROCUBE 8C,2016-067F,2026-07-16T13:53:46.881312,15.25035356,.000407,98.0512,67.1784,336.3351,23.7698,0,U,41853,999,53054,.16746E-3,.4101E-4,0
CORVUS BC2,2017-042X,2026-07-16T10:08:04.803648,15.06459280,.0013332,97.4091,357.6431,19.0018,341.1704,0,U,42846,999,49146,.75471E-4,.1056E-4,0
CORVUS BC1,2017-042Y,2026-07-16T09:55:41.388672,15.06623094,.0011529,97.4121,358.4677,355.8065,4.3064,0,U,42847,999,49149,.96311E-4,.1369E-4,0
MAKERSAT 0,2017-073D,2026-07-16T10:20:26.018880,15.33035166,.0105507,97.4577,80.1901,167.8681,192.5141,0,U,43016,999,47094,.30313E-3,.11478E-3,0
SIRION PATHFINDER-2,2018-099B,2026-07-16T15:29:53.736576,15.14783275,.0008606,97.4236,246.0049,186.2645,173.8481,0,U,43759,999,41708,.10542E-3,.1892E-4,0
CORVUS BC4,2018-099K,2026-07-16T15:01:57.376992,15.12708038,.0006558,97.4049,239.7463,254.7281,105.3225,0,U,43767,999,41685,.10674E-3,.1806E-4,0
M2 PATHFINDER,2020-037E,2026-07-16T12:08:02.628672,15.04793453,.0012797,97.8141,29.0690,58.4757,301.7717,0,U,45727,999,32990,.48604E-4,.622E-5,0
